OBJECT_NAME,OBJECT_ID,EPOCH,MEAN_MOTION,ECCENTRICITY,INCLINATION,RA_OF_ASC_NODE,ARG_OF_PERICENTER,MEAN_ANOMALY,EPHEMERIS_TYPE,CLASSIFICATION_TYPE,NORAD_CAT_ID,ELEMENT_SET_NO,REV_AT_EPOCH,BSTAR,MEAN_MOTION_DOT,MEAN_MOTION_DDOT
SL-8 R/B,1985-006B,2026-06-14T05:49:00.646176,14.37833930,.00187847,74.0459,83.4830,331.1024,140.9110,0,U,15483,999,16790,.73118959E-4,.194E-5,0
SL-12 R/B(2),1985-042D,2026-06-14T06:39:03.614688,14.22005367,.00361757,71.1079,243.6644,332.1776,84.2736,0,U,15772,999,12812,.55318588E-4,.75E-6,0
SL-14 R/B,1985-069B,2026-06-14T01:44:48.749280,14.86513392,.00175776,82.5267,294.2950,230.0934,129.8738,0,U,15945,999,18715,.42505708E-4,.401E-5,0
SL-16 R/B,1985-097B,2026-06-14T02:41:06.097632,14.16610789,.00054395,71.0035,297.5526,117.7740,54.6549,0,U,16182,999,10088,-.98407815E-4,-.244E-5,0
SL-14 R/B,1986-006B,2026-06-14T02:10:31.354752,14.86942919,.00751473,82.5262,169.0274,313.9265,45.5764,0,U,16496,999,16353,.55717609E-4,.55E-5,0
COSMOS 1743,1986-034A,2026-06-14T05:00:51.071616,15.66702463,.00037959,82.5269,331.8983,284.9644,75.1195,0,U,16719,999,19532,.48110494E-3,.50729E-3,0
SL-14 R/B,1986-046B,2026-06-14T06:09:45.697824,14.85669273,.00215677,82.4815,348.9448,268.8271,91.0475,0,U,16792,999,14074,.3900645E-4,.363E-5,0
SL-14 R/B,1986-055B,2026-06-14T03:03:07.062912,14.85721294,.00193441,82.5205,36.0100,17.6404,111.4583,0,U,16882,999,13368,.40359912E-4,.376E-5,0
AJISAI (EGS),1986-061A,2026-06-14T06:28:42.000384,12.44516827,.00112313,50.0065,156.3656,173.2035,10.5834,0,U,16908,999,48002,-.3402008E-5,-.98E-6,0
SL-14 R/B,1987-024B,2026-06-14T06:07:21.784800,14.86211468,.00169283,82.5280,2.0068,303.7556,56.2047,0,U,17567,999,10247,.36284784E-4,.343E-5,0
COSMOS 1833,1987-027A,2026-06-14T06:38:27.375072,14.13047816,.00227216,70.9173,122.9859,59.9759,300.3612,0,U,17589,999,2396,.1916718E-3,.311E-5,0
SL-16 R/B,1987-027B,2026-06-14T06:02:16.993248,14.17172528,.00064162,71.0033,73.0147,315.6061,44.4547,0,U,17590,999,2902,-.54483321E-4,-.158E-5,0
SL-14 R/B,1987-038B,2026-06-14T03:57:35.537760,14.85443556,.00186179,82.5010,205.9190,201.3932,158.6508,0,U,17912,999,9355,.32631848E-4,.306E-5,0
COSMOS 1844,1987-041A,2026-06-14T06:41:07.946880,14.14568585,.00330385,70.8973,190.4429,239.7665,120.0185,0,U,17973,999,1724,-.62614171E-4,-.17E-5,0
SL-14 R/B,1987-055B,2026-06-14T06:14:01.129920,14.85709323,.00218726,82.4994,257.9886,56.8267,303.5043,0,U,18153,999,8427,.39670352E-4,.37E-5,0
COSMOS 1867,1987-060A,2026-06-13T23:44:51.472032,14.31515491,.00164463,65.0116,37.0142,282.1088,77.8154,0,U,18187,999,3372,.27271434E-4,-.28E-6,0
SL-14 R/B,1988-001B,2026-06-14T06:16:36.580800,14.85607759,.00164743,82.5132,104.5260,280.1630,79.7728,0,U,18749,999,5636,.39746102E-4,.369E-5,0
COSMOS 1933,1988-020A,2026-06-14T01:44:30.407424,15.18694692,.0003125,82.5115,155.5192,197.3434,162.7694,0,U,18958,999,6485,.15841303E-3,.3315E-4,0
SL-3 R/B,1988-032B,2026-06-14T05:11:47.892192,15.20820950,.0023711,97.5248,148.2603,256.1471,103.7126,0,U,19046,999,6677,.18598557E-3,.406E-4,0
SL-16 R/B,1988-039B,2026-06-14T05:33:56.980800,14.19629467,.0022449,71.0140,224.4072,197.5312,162.5041,0,U,19120,999,97208,-.32318691E-4,-.117E-5,0
COSMOS 1953,1988-050A,2026-06-14T04:57:13.074048,15.29940356,.00119399,82.5086,61.0402,135.3677,224.8527,0,U,19210,999,5253,.25486628E-3,.7434E-4,0
SL-8 R/B,1988-053B,2026-06-14T02:34:20.409888,14.38966388,.00191678,74.0479,294.7348,91.2006,81.4497,0,U,19257,999,99046,.57740346E-4,.152E-5,0
COSMOS 1975,1988-093A,2026-06-14T01:53:51.811296,15.29290980,.00110035,82.5194,20.8290,182.2738,177.8454,0,U,19573,999,3413,.26340613E-3,.7528E-4,0
SL-14 R/B,1988-093B,2026-06-13T21:59:51.633312,14.85739646,.0022163,82.5309,311.7155,80.5250,40.8820,0,U,19574,999,1530,.45117E-4,.418E-5,0
SL-16 R/B,1988-102B,2026-06-14T02:37:18.189984,14.16165138,.00159357,71.0001,308.6158,229.7300,130.2431,0,U,19650,999,94054,-.99602738E-4,-.245E-5,0
INTERCOSMOS 24,1989-080A,2026-06-14T03:46:31.115712,12.59657396,.11883894,82.6067,41.6164,68.9290,303.4600,0,U,20261,999,67894,.24261186E-3,.855E-5,0
SL-14 R/B,1989-080C,2026-06-14T02:56:18.333024,12.50569139,.12289113,82.5930,111.2766,324.4156,28.0660,0,U,20262,999,67220,.90750053E-4,.304E-5,0
DELTA 1 R/B,1989-089B,2026-06-14T06:04:57.150336,14.50729695,.0068989,97.0637,357.2811,176.2092,183.9643,0,U,20323,999,90973,.83067951E-4,.302E-5,0
ARIANE 40 R/B,1990-005H,2026-06-14T03:01:42.180960,14.39925875,.0008804,98.2960,222.8373,274.9768,85.0415,0,U,20443,999,90668,.82318425E-4,.217E-5,0
DELTA 2 R/B(1),1990-008B,2026-06-13T22:40:16.120128,15.68352967,.0065605,35.6001,257.3443,83.4720,277.3483,0,U,20453,999,94119,.60673E-3,.80584E-3,0
