SL-8 R/B                
1 15483U 85006B   26165.24236859  .00000194  00000+0  73119-4 0  9997
2 15483  74.0459  83.4830 0018784 331.1024 140.9110 14.37833930167900
SL-12 R/B(2)            
1 15772U 85042D   26165.27712517  .00000075  00000+0  55319-4 0  9991
2 15772  71.1079 243.6644 0036175 332.1776  84.2736 14.22005367128123
SL-14 R/B               
1 15945U 85069B   26165.07278645  .00000401  00000+0  42506-4 0  9996
2 15945  82.5267 294.2950 0017577 230.0934 129.8738 14.86513392187157
SL-16 R/B               
1 16182U 85097B   26165.11187613 -.00000244  00000+0 -98408-4 0  9999
2 16182  71.0035 297.5526 0005439 117.7740  54.6549 14.16610789100883
SL-14 R/B               
1 16496U 86006B   26165.09064068  .00000550  00000+0  55718-4 0  9998
2 16496  82.5262 169.0274 0075147 313.9265  45.5764 14.86942919163537
COSMOS 1743             
1 16719U 86034A   26165.20892444  .00050729  00000+0  48110-3 0  9997
2 16719  82.5269 331.8983 0003795 284.9644  75.1195 15.66702463195322
SL-14 R/B               
1 16792U 86046B   26165.25677891  .00000363  00000+0  39006-4 0  9997
2 16792  82.4815 348.9448 0021567 268.8271  91.0475 14.85669273140743
SL-14 R/B               
1 16882U 86055B   26165.12716508  .00000376  00000+0  40360-4 0  9991
2 16882  82.5205  36.0100 0019344  17.6404 111.4583 14.85721294133689
AJISAI (EGS)            
1 16908U 86061A   26165.26993056 -.00000098  00000+0 -34020-5 0  9997
2 16908  50.0065 156.3656 0011231 173.2035  10.5834 12.44516827480028
SL-14 R/B               
1 17567U 87024B   26165.25511325  .00000343  00000+0  36285-4 0  9998
2 17567  82.5280   2.0068 0016928 303.7556  56.2047 14.86211468102473
COSMOS 1833             
1 17589U 87027A   26165.27670573  .00000311  00000+0  19167-3 0  9992
2 17589  70.9173 122.9859 0022721  59.9759 300.3612 14.13047816 23963
SL-16 R/B               
1 17590U 87027B   26165.25158557 -.00000158  00000+0 -54483-4 0  9997
2 17590  71.0033  73.0147 0006416 315.6061  44.4547 14.17172528 29028
SL-14 R/B               
1 17912U 87038B   26165.16499465  .00000306  00000+0  32632-4 0  9998
2 17912  82.5010 205.9190 0018617 201.3932 158.6508 14.85443556 93557
COSMOS 1844             
1 17973U 87041A   26165.27856420 -.00000170  00000+0 -62614-4 0  9993
2 17973  70.8973 190.4429 0033038 239.7665 120.0185 14.14568585 17245
SL-14 R/B               
1 18153U 87055B   26165.25973530  .00000370  00000+0  39670-4 0  9995
2 18153  82.4994 257.9886 0021872  56.8267 303.5043 14.85709323 84276
COSMOS 1867             
1 18187U 87060A   26164.98948463 -.00000028  00000+0  27271-4 0  9999
2 18187  65.0116  37.0142 0016446 282.1088  77.8154 14.31515491 33724
SL-14 R/B               
1 18749U 88001B   26165.26153450  .00000369  00000+0  39746-4 0  9992
2 18749  82.5132 104.5260 0016474 280.1630  79.7728 14.85607759 56364
COSMOS 1933             
1 18958U 88020A   26165.07257416  .00003315  00000+0  15841-3 0  9994
2 18958  82.5115 155.5192 0003125 197.3434 162.7694 15.18694692 64854
SL-3 R/B                
1 19046U 88032B   26165.21652653  .00004060  00000+0  18599-3 0  9995
2 19046  97.5248 148.2603 0023711 256.1471 103.7126 15.20820950 66779
SL-16 R/B               
1 19120U 88039B   26165.23190950 -.00000117  00000+0 -32319-4 0  9992
2 19120  71.0140 224.4072 0022449 197.5312 162.5041 14.19629467972082
COSMOS 1953             
1 19210U 88050A   26165.20640132  .00007434  00000+0  25487-3 0  9998
2 19210  82.5086  61.0402 0011939 135.3677 224.8527 15.29940356 52531
SL-8 R/B                
1 19257U 88053B   26165.10718067  .00000152  00000+0  57740-4 0  9992
2 19257  74.0479 294.7348 0019167  91.2006  81.4497 14.38966388990463
COSMOS 1975             
1 19573U 88093A   26165.07907189  .00007528  00000+0  26341-3 0  9994
2 19573  82.5194  20.8290 0011003 182.2738 177.8454 15.29290980 34135
SL-14 R/B               
1 19574U 88093B   26164.91656983  .00000418  00000+0  45117-4 0  9994
2 19574  82.5309 311.7155 0022163  80.5250  40.8820 14.85739646 15306
SL-16 R/B               
1 19650U 88102B   26165.10923831 -.00000245  00000+0 -99603-4 0  9990
2 19650  71.0001 308.6158 0015935 229.7300 130.2431 14.16165138940541
INTERCOSMOS 24          
1 20261U 89080A   26165.15730458  .00000855  00000+0  24261-3 0  9994
2 20261  82.6067  41.6164 1188389  68.9290 303.4600 12.59657396678949
SL-14 R/B               
1 20262U 89080C   26165.12243441  .00000304  00000+0  90750-4 0  9999
2 20262  82.5930 111.2766 1228911 324.4156  28.0660 12.50569139672204
DELTA 1 R/B             
1 20323U 89089B   26165.25343924  .00000302  00000+0  83068-4 0  9999
2 20323  97.0637 357.2811 0068989 176.2092 183.9643 14.50729695909738
ARIANE 40 R/B           
1 20443U 90005H   26165.12618265  .00000217  00000+0  82318-4 0  9993
2 20443  98.2960 222.8373 0008804 274.9768  85.0415 14.39925875906684
DELTA 2 R/B(1)          
1 20453U 90008B   26164.94463102  .00080584  00000+0  60673-3 0  9998
2 20453  35.6001 257.3443 0065605  83.4720 277.3483 15.68352967941195
